{
    "links": {
        "self": "http://www.neowsapp.com/rest/v1/neo/3566695?api_key=iIulBulltgU6a56xZRHN4H3l9WmuAYTsLGpBGhQ2"
    },
    "id": "3566695",
    "neo_reference_id": "3566695",
    "name": "(2011 KU15)",
    "designation": "2011 KU15",
    "nasa_jpl_url": "http://ssd.jpl.nasa.gov/sbdb.cgi?sstr=3566695",
    "absolute_magnitude_h": 21.8,
    "estimated_diameter": {
        "kilometers": {
            "estimated_diameter_min": 0.1160259082,
            "estimated_diameter_max": 0.2594418179
        },
        "meters": {
            "estimated_diameter_min": 116.0259082094,
            "estimated_diameter_max": 259.4418179074
        },
        "miles": {
            "estimated_diameter_min": 0.0720951346,
            "estimated_diameter_max": 0.1612096218
        },
        "feet": {
            "estimated_diameter_min": 380.6624406898,
            "estimated_diameter_max": 851.1870938635
        }
    },
    "is_potentially_hazardous_asteroid": true,
    "close_approach_data": [
        {
            "close_approach_date": "2011-06-14",
            "close_approach_date_full": "2011-Jun-14 11:19",
            "epoch_date_close_approach": 1308050340000,
            "relative_velocity": {
                "kilometers_per_second": "24.2521268155",
                "kilometers_per_hour": "87307.6565358234",
                "miles_per_hour": "54249.5824736065"
            },
            "miss_distance": {
                "astronomical": "0.2707763479",
                "lunar": "105.3319993331",
                "kilometers": "40507564.892218973",
                "miles": "25170233.6647809074"
            },
            "orbiting_body": "Earth"
        }
    ],
    "orbital_data": {
        "orbit_id": "7",
        "orbit_determination_date": "2017-04-06 08:53:24",
        "first_observation_date": "2011-05-26",
        "last_observation_date": "2011-06-04",
        "data_arc_in_days": 9,
        "observations_used": 20,
        "orbit_uncertainty": "9",
        "minimum_orbit_intersection": ".0476591",
        "jupiter_tisserand_invariant": "3.252",
        "epoch_osculation": "2455710.5",
        "eccentricity": ".8761011786382876",
        "semi_major_axis": "1.954224305535052",
        "inclination": "4.40049467118876",
        "ascending_node_longitude": "214.5034540396441",
        "orbital_period": "997.8380085944979",
        "perihelion_distance": ".2421260881322038",
        "perihelion_argument": "166.8485890687554",
        "aphelion_distance": "3.666322522937899",
        "perihelion_time": "2455772.934567413154",
        "mean_anomaly": "337.4748565647499",
        "mean_motion": ".3607800032663389",
        "equinox": "J2000",
        "orbit_class": {
            "orbit_class_type": "APO",
            "orbit_class_description": "Near-Earth asteroid orbits which cross the Earth’s orbit similar to that of 1862 Apollo",
            "orbit_class_range": "a (semi-major axis) > 1.0 AU; q (perihelion) < 1.017 AU"
        }
    },
    "is_sentry_object": false
}